CCSDS_OMM_VERS = 2.0
CREATION_DATE  = 
ORIGINATOR     = 

OBJECT_NAME    = SL-3 R/B
OBJECT_ID      = 1982-079B
CENTER_NAME    = EARTH
REF_FRAME      = TEME
TIME_SYSTEM    = UTC
MEAN_ELEMENT_THEORY = SGP/SGP4

EPOCH          = 2025-11-24T16:25:05.255040
MEAN_MOTION    = 15.23297750
ECCENTRICITY   = .0026101
INCLINATION    = 81.1462
RA_OF_ASC_NODE = 316.9412
ARG_OF_PERICENTER = 157.6136
MEAN_ANOMALY   = 202.6242

EPHEMERIS_TYPE = 0
CLASSIFICATION_TYPE = U
NORAD_CAT_ID   = 13403
ELEMENT_SET_NO = 999
REV_AT_EPOCH   = 36170
BSTAR          = .23299E-3
MEAN_MOTION_DOT = .5604E-4
MEAN_MOTION_DDOT = 0

CCSDS_OMM_VERS = 2.0
CREATION_DATE  = 
ORIGINATOR     = 

OBJECT_NAME    = SL-14 R/B
OBJECT_ID      = 1982-092B
CENTER_NAME    = EARTH
REF_FRAME      = TEME
TIME_SYSTEM    = UTC
MEAN_ELEMENT_THEORY = SGP/SGP4

EPOCH          = 2025-11-24T17:00:20.740896
MEAN_MOTION    = 14.86527333
ECCENTRICITY   = .0018898
INCLINATION    = 82.5690
RA_OF_ASC_NODE = 239.5728
ARG_OF_PERICENTER = 291.6209
MEAN_ANOMALY   = 131.2831

EPHEMERIS_TYPE = 0
CLASSIFICATION_TYPE = U
NORAD_CAT_ID   = 13553
ELEMENT_SET_NO = 999
REV_AT_EPOCH   = 31333
BSTAR          = .72249E-4
MEAN_MOTION_DOT = .665E-5
MEAN_MOTION_DDOT = 0

CCSDS_OMM_VERS = 2.0
CREATION_DATE  = 
ORIGINATOR     = 

OBJECT_NAME    = SL-3 R/B
OBJECT_ID      = 1983-010B
CENTER_NAME    = EARTH
REF_FRAME      = TEME
TIME_SYSTEM    = UTC
MEAN_ELEMENT_THEORY = SGP/SGP4

EPOCH          = 2025-11-24T13:12:51.170400
MEAN_MOTION    = 15.42784597
ECCENTRICITY   = .0018026
INCLINATION    = 81.1028
RA_OF_ASC_NODE = 130.8090
ARG_OF_PERICENTER = 54.0388
MEAN_ANOMALY   = 306.2523

EPHEMERIS_TYPE = 0
CLASSIFICATION_TYPE = U
NORAD_CAT_ID   = 13819
ELEMENT_SET_NO = 999
REV_AT_EPOCH   = 34171
BSTAR          = .35371E-3
MEAN_MOTION_DOT = .15605E-3
MEAN_MOTION_DDOT = 0

CCSDS_OMM_VERS = 2.0
CREATION_DATE  = 
ORIGINATOR     = 

OBJECT_NAME    = SL-3 R/B
OBJECT_ID      = 1983-075B
CENTER_NAME    = EARTH
REF_FRAME      = TEME
TIME_SYSTEM    = UTC
MEAN_ELEMENT_THEORY = SGP/SGP4

EPOCH          = 2025-11-24T17:45:53.315424
MEAN_MOTION    = 15.35623677
ECCENTRICITY   = .0021046
INCLINATION    = 97.6105
RA_OF_ASC_NODE = 324.6267
ARG_OF_PERICENTER = 242.6068
MEAN_ANOMALY   = 117.3034

EPHEMERIS_TYPE = 0
CLASSIFICATION_TYPE = U
NORAD_CAT_ID   = 14208
ELEMENT_SET_NO = 999
REV_AT_EPOCH   = 31403
BSTAR          = .35404E-3
MEAN_MOTION_DOT = .1227E-3
MEAN_MOTION_DDOT = 0

CCSDS_OMM_VERS = 2.0
CREATION_DATE  = 
ORIGINATOR     = 

OBJECT_NAME    = COSMOS 1536
OBJECT_ID      = 1984-013A
CENTER_NAME    = EARTH
REF_FRAME      = TEME
TIME_SYSTEM    = UTC
MEAN_ELEMENT_THEORY = SGP/SGP4

EPOCH          = 2025-11-24T17:32:25.744128
MEAN_MOTION    = 15.22235385
ECCENTRICITY   = .0013465
INCLINATION    = 82.5465
RA_OF_ASC_NODE = 212.0181
ARG_OF_PERICENTER = 296.6895
MEAN_ANOMALY   = 63.2962

EPHEMERIS_TYPE = 0
CLASSIFICATION_TYPE = U
NORAD_CAT_ID   = 14699
ELEMENT_SET_NO = 999
REV_AT_EPOCH   = 25664
BSTAR          = .26547E-3
MEAN_MOTION_DOT = .6148E-4
MEAN_MOTION_DDOT = 0

CCSDS_OMM_VERS = 2.0
CREATION_DATE  = 
ORIGINATOR     = 

OBJECT_NAME    = SL-14 R/B
OBJECT_ID      = 1984-027B
CENTER_NAME    = EARTH
REF_FRAME      = TEME
TIME_SYSTEM    = UTC
MEAN_ELEMENT_THEORY = SGP/SGP4

EPOCH          = 2025-11-24T12:11:01.863744
MEAN_MOTION    = 14.85845658
ECCENTRICITY   = .0017037
INCLINATION    = 82.5414
RA_OF_ASC_NODE = 343.6559
ARG_OF_PERICENTER = 326.2093
MEAN_ANOMALY   = 33.8036

EPHEMERIS_TYPE = 0
CLASSIFICATION_TYPE = U
NORAD_CAT_ID   = 14820
ELEMENT_SET_NO = 999
REV_AT_EPOCH   = 23201
BSTAR          = .61295E-4
MEAN_MOTION_DOT = .559E-5
MEAN_MOTION_DDOT = 0

CCSDS_OMM_VERS = 2.0
CREATION_DATE  = 
ORIGINATOR     = 

OBJECT_NAME    = SL-8 R/B
OBJECT_ID      = 1985-006B
CENTER_NAME    = EARTH
REF_FRAME      = TEME
TIME_SYSTEM    = UTC
MEAN_ELEMENT_THEORY = SGP/SGP4

EPOCH          = 2025-11-24T17:42:40.428288
MEAN_MOTION    = 14.37704788
ECCENTRICITY   = .0017935
INCLINATION    = 74.0451
RA_OF_ASC_NODE = 94.2534
ARG_OF_PERICENTER = 31.9055
MEAN_ANOMALY   = 73.7273

EPHEMERIS_TYPE = 0
CLASSIFICATION_TYPE = U
NORAD_CAT_ID   = 15483
ELEMENT_SET_NO = 999
REV_AT_EPOCH   = 13894
BSTAR          = .12567E-3
MEAN_MOTION_DOT = .352E-5
MEAN_MOTION_DDOT = 0

CCSDS_OMM_VERS = 2.0
CREATION_DATE  = 
ORIGINATOR     = 

OBJECT_NAME    = SL-12 R/B(2)
OBJECT_ID      = 1985-042D
CENTER_NAME    = EARTH
REF_FRAME      = TEME
TIME_SYSTEM    = UTC
MEAN_ELEMENT_THEORY = SGP/SGP4

EPOCH          = 2025-11-24T16:31:25.389120
MEAN_MOTION    = 14.21943190
ECCENTRICITY   = .0037585
INCLINATION    = 71.1077
RA_OF_ASC_NODE = 309.5556
ARG_OF_PERICENTER = 287.9939
MEAN_ANOMALY   = 245.0198

EPHEMERIS_TYPE = 0
CLASSIFICATION_TYPE = U
NORAD_CAT_ID   = 15772
ELEMENT_SET_NO = 999
REV_AT_EPOCH   = 9946
BSTAR          = .56609E-4
MEAN_MOTION_DOT = .78E-6
MEAN_MOTION_DDOT = 0

CCSDS_OMM_VERS = 2.0
CREATION_DATE  = 
ORIGINATOR     = 

OBJECT_NAME    = SL-14 R/B
OBJECT_ID      = 1985-069B
CENTER_NAME    = EARTH
REF_FRAME      = TEME
TIME_SYSTEM    = UTC
MEAN_ELEMENT_THEORY = SGP/SGP4

EPOCH          = 2025-11-24T17:25:55.110720
MEAN_MOTION    = 14.86291768
ECCENTRICITY   = .0018904
INCLINATION    = 82.5249
RA_OF_ASC_NODE = 123.6376
ARG_OF_PERICENTER = 175.6566
MEAN_ANOMALY   = 184.4819

EPHEMERIS_TYPE = 0
CLASSIFICATION_TYPE = U
NORAD_CAT_ID   = 15945
ELEMENT_SET_NO = 999
REV_AT_EPOCH   = 15724
BSTAR          = .75775E-4
MEAN_MOTION_DOT = .693E-5
MEAN_MOTION_DDOT = 0

CCSDS_OMM_VERS = 2.0
CREATION_DATE  = 
ORIGINATOR     = 

OBJECT_NAME    = SL-16 R/B
OBJECT_ID      = 1985-097B
CENTER_NAME    = EARTH
REF_FRAME      = TEME
TIME_SYSTEM    = UTC
MEAN_ELEMENT_THEORY = SGP/SGP4

EPOCH          = 2025-11-24T13:42:19.671264
MEAN_MOTION    = 14.16581949
ECCENTRICITY   = .0005698
INCLINATION    = 71.0040
RA_OF_ASC_NODE = 1.8547
ARG_OF_PERICENTER = 42.6454
MEAN_ANOMALY   = 68.6813

EPHEMERIS_TYPE = 0
CLASSIFICATION_TYPE = U
NORAD_CAT_ID   = 16182
ELEMENT_SET_NO = 999
REV_AT_EPOCH   = 7234
BSTAR          = .89997E-4
MEAN_MOTION_DOT = .132E-5
MEAN_MOTION_DDOT = 0

CCSDS_OMM_VERS = 2.0
CREATION_DATE  = 
ORIGINATOR     = 

OBJECT_NAME    = SL-14 R/B
OBJECT_ID      = 1986-006B
CENTER_NAME    = EARTH
REF_FRAME      = TEME
TIME_SYSTEM    = UTC
MEAN_ELEMENT_THEORY = SGP/SGP4

EPOCH          = 2025-11-24T14:15:45.842112
MEAN_MOTION    = 14.86634995
ECCENTRICITY   = .0075204
INCLINATION    = 82.5274
RA_OF_ASC_NODE = 358.6258
ARG_OF_PERICENTER = 260.8938
MEAN_ANOMALY   = 98.3764

EPHEMERIS_TYPE = 0
CLASSIFICATION_TYPE = U
NORAD_CAT_ID   = 16496
ELEMENT_SET_NO = 999
REV_AT_EPOCH   = 13359
BSTAR          = .81857E-4
MEAN_MOTION_DOT = .79E-5
MEAN_MOTION_DDOT = 0

CCSDS_OMM_VERS = 2.0
CREATION_DATE  = 
ORIGINATOR     = 

OBJECT_NAME    = COSMOS 1743
OBJECT_ID      = 1986-034A
CENTER_NAME    = EARTH
REF_FRAME      = TEME
TIME_SYSTEM    = UTC
MEAN_ELEMENT_THEORY = SGP/SGP4

EPOCH          = 2025-11-24T15:50:09.917664
MEAN_MOTION    = 15.50919418
ECCENTRICITY   = .0005612
INCLINATION    = 82.5355
RA_OF_ASC_NODE = 183.3513
ARG_OF_PERICENTER = 333.5641
MEAN_ANOMALY   = 26.5324

EPHEMERIS_TYPE = 0
CLASSIFICATION_TYPE = U
NORAD_CAT_ID   = 16719
ELEMENT_SET_NO = 999
REV_AT_EPOCH   = 16393
BSTAR          = .47995E-3
MEAN_MOTION_DOT = .27881E-3
MEAN_MOTION_DDOT = 0

