SL-3 R/B                
1 13403U 82079B   25328.68408860  .00005604  00000+0  23299-3 0  9999
2 13403  81.1462 316.9412 0026101 157.6136 202.6242 15.23297750361706
SL-14 R/B               
1 13553U 82092B   25328.70857339  .00000665  00000+0  72249-4 0  9994
2 13553  82.5690 239.5728 0018898 291.6209 131.2831 14.86527333313332
SL-3 R/B                
1 13819U 83010B   25328.55059225  .00015605  00000+0  35371-3 0  9995
2 13819  81.1028 130.8090 0018026  54.0388 306.2523 15.42784597341719
SL-3 R/B                
1 14208U 83075B   25328.74020041  .00012270  00000+0  35404-3 0  9996
2 14208  97.6105 324.6267 0021046 242.6068 117.3034 15.35623677314031
COSMOS 1536             
1 14699U 84013A   25328.73085352  .00006148  00000+0  26547-3 0  9993
2 14699  82.5465 212.0181 0013465 296.6895  63.2962 15.22235385256647
SL-14 R/B               
1 14820U 84027B   25328.50766046  .00000559  00000+0  61295-4 0  9995
2 14820  82.5414 343.6559 0017037 326.2093  33.8036 14.85845658232014
SL-8 R/B                
1 15483U 85006B   25328.73796792  .00000352  00000+0  12567-3 0  9993
2 15483  74.0451  94.2534 0017935  31.9055  73.7273 14.37704788138942
SL-12 R/B(2)            
1 15772U 85042D   25328.68848830  .00000078  00000+0  56609-4 0  9990
2 15772  71.1077 309.5556 0037585 287.9939 245.0198 14.21943190 99466
SL-14 R/B               
1 15945U 85069B   25328.72633230  .00000693  00000+0  75775-4 0  9990
2 15945  82.5249 123.6376 0018904 175.6566 184.4819 14.86291768157248
SL-16 R/B               
1 16182U 85097B   25328.57106101  .00000132  00000+0  89997-4 0  9999
2 16182  71.0040   1.8547 0005698  42.6454  68.6813 14.16581949 72346
SL-14 R/B               
1 16496U 86006B   25328.59428058  .00000790  00000+0  81857-4 0  9995
2 16496  82.5274 358.6258 0075204 260.8938  98.3764 14.86634995133590
COSMOS 1743             
1 16719U 86034A   25328.65983701  .00027881  00000+0  47995-3 0  9996
2 16719  82.5355 183.3513 0005612 333.5641  26.5324 15.50919418163934
